OBJECT_NAME,OBJECT_ID,EPOCH,MEAN_MOTION,ECCENTRICITY,INCLINATION,RA_OF_ASC_NODE,ARG_OF_PERICENTER,MEAN_ANOMALY,EPHEMERIS_TYPE,CLASSIFICATION_TYPE,NORAD_CAT_ID,ELEMENT_SET_NO,REV_AT_EPOCH,BSTAR,MEAN_MOTION_DOT,MEAN_MOTION_DDOT
ONEWEB-0423,2022-012F,2026-07-06T17:40:11.027136,13.17648695,.0001828,87.9137,1.9745,87.9720,272.1621,0,U,51627,999,21627,.66101E-4,.39E-6,0
ONEWEB-0425,2022-012G,2026-07-06T13:54:32.644800,13.10370642,.0001949,87.8815,32.4029,74.8213,285.3130,0,U,51628,999,21186,-.2603E-3,-.78E-6,0
ONEWEB-0428,2022-012H,2026-07-06T15:15:11.031840,13.10374714,.0001855,87.8817,32.3987,85.8758,274.2581,0,U,51629,999,21183,.19079E-2,.679E-5,0
ONEWEB-0431,2022-012J,2026-07-06T14:30:55.557216,13.10373917,.0002207,87.8822,32.3976,100.2564,259.8812,0,U,51630,999,21188,-.15767E-2,-.538E-5,0
ONEWEB-0434,2022-012K,2026-07-06T13:59:37.159872,13.10365459,.0001813,87.8819,32.4278,66.5126,293.6192,0,U,51631,999,21186,-.73683E-3,-.245E-5,0
ONEWEB-0435,2022-012L,2026-07-06T14:09:09.251424,13.10359173,.0001985,87.8817,32.4125,99.3496,260.7856,0,U,51632,999,21185,-.5975E-2,-.2072E-4,0
ONEWEB-0436,2022-012M,2026-07-06T11:59:59.500608,13.17650744,.0001828,87.9146,2.0042,97.8244,262.3095,0,U,51633,999,21622,.60307703E-4,.36E-6,0
ONEWEB-0438,2022-012N,2026-07-06T13:47:11.698080,13.10371730,.0001915,87.8815,32.4178,80.4267,279.7077,0,U,51634,999,21188,.53112E-3,.198E-5,0
ONEWEB-0439,2022-012P,2026-07-06T13:52:05.038176,13.10370446,.0001809,87.8813,32.4044,84.9234,275.2100,0,U,51635,999,21186,.10554E-3,.5E-6,0
ONEWEB-0442,2022-012Q,2026-07-06T17:17:07.966176,13.17650907,.0002011,87.9137,1.9916,73.9381,286.1972,0,U,51636,999,21624,.17479E-3,.81E-6,0
ONEWEB-0443,2022-012R,2026-07-06T17:45:02.539008,13.17649669,.0001525,87.9137,1.9890,88.3147,271.8159,0,U,51637,999,21629,-.11334E-4,.8E-7,0
ONEWEB-0444,2022-012S,2026-07-06T13:37:25.987296,13.10372749,.0001651,87.8814,32.4050,85.9145,274.2170,0,U,51638,999,21187,.14726E-2,.527E-5,0
ONEWEB-0445,2022-012T,2026-07-06T14:06:41.466816,13.10370055,.0002113,87.8823,32.3906,86.7981,273.3388,0,U,51639,999,21188,-.13728E-2,-.467E-5,0
ONEWEB-0446,2022-012U,2026-07-06T15:24:54.625824,13.10369967,.0002204,87.8817,32.4073,85.5968,274.5411,0,U,51640,999,21187,.17725E-2,.631E-5,0
ONEWEB-0448,2022-012V,2026-07-06T13:42:19.169280,13.10372846,.0001815,87.8812,32.4174,86.1279,274.0056,0,U,51641,999,21183,.11619E-2,.418E-5,0
ONEWEB-0449,2022-012W,2026-07-06T13:49:37.272576,13.10370027,.000211,87.8818,32.4029,71.1207,289.0149,0,U,51642,999,21184,.27608E-3,.109E-5,0
ONEWEB-0451,2022-012X,2026-07-06T17:23:11.270400,13.17651102,.0001815,87.9148,1.9576,84.5240,275.6098,0,U,51643,999,21623,.24331E-3,.107E-5,0
ONEWEB-0452,2022-012Y,2026-07-06T17:20:44.401632,13.17651109,.0001613,87.9140,1.9929,85.7691,274.3625,0,U,51644,999,21624,.20375E-3,.92E-6,0
ONEWEB-0456,2022-012AA,2026-07-06T14:01:47.890848,13.10368890,.0001734,87.8826,32.3899,90.1957,269.9369,0,U,51646,999,21188,-.10513E-2,-.354E-5,0
ONEWEB-0457,2022-012AB,2026-07-06T15:19:52.166208,13.10373897,.0002191,87.8818,32.3954,82.1126,278.0250,0,U,51647,999,21189,.18323E-2,.652E-5,0
ONEWEB-0458,2022-012AC,2026-07-06T14:00:36.342144,13.10369727,.0001669,87.8818,32.3947,82.2338,277.8979,0,U,51648,999,21184,-.90575E-3,-.303E-5,0
ONEWEB-0461,2022-012AD,2026-07-06T17:52:20.956800,13.17649556,.0001983,87.9147,1.9675,89.6053,270.5306,0,U,51649,999,21646,.44093E-4,.3E-6,0
ONEWEB-0463,2022-012AE,2026-07-06T17:25:37.339104,13.17650283,.0002046,87.9138,1.9919,90.1548,269.9818,0,U,51650,999,21624,.16983E-3,.79E-6,0
ONEWEB-0464,2022-012AF,2026-07-06T13:56:56.817024,13.10381092,.0001615,87.8814,32.4164,88.2276,271.9037,0,U,51651,999,21186,-.7042E-2,-.2445E-4,0
ONEWEB-0468,2022-012AG,2026-07-06T14:04:14.452032,13.10369031,.0001605,87.8814,32.4087,90.7264,269.4048,0,U,51652,999,21184,-.10941E-2,-.369E-5,0
ONEWEB-0473,2022-012AH,2026-07-06T13:44:45.549888,13.10367293,.0001781,87.8815,32.4137,89.0216,271.1115,0,U,51653,999,21184,.17919E-2,.638E-5,0
ONEWEB-0474,2022-012AJ,2026-07-06T15:22:29.867808,13.10372056,.0001523,87.8826,32.3860,88.6831,271.4471,0,U,51654,999,21184,.1478E-2,.529E-5,0
ONEWEB-0475,2022-012AK,2026-07-06T17:42:37.215072,13.17648700,.0001236,87.9137,1.9827,100.5434,259.5837,0,U,51655,999,21626,.21284E-3,.96E-6,0
ONEWEB-0490,2022-138A,2026-07-06T16:41:15.584064,13.19725932,.0001958,87.9191,301.0827,106.2938,253.8410,0,U,54113,999,17940,-.28778E-4,.1E-7,0
ONEWEB-0492,2022-138B,2026-07-06T08:11:45.417696,13.19726950,.00021388,87.9184,301.1534,105.9456,254.1912,0,U,54114,999,17936,.19749629E-3,.92E-6,0
ONEWEB-0495,2022-138C,2026-07-06T16:45:48.604608,13.19725722,.0001924,87.9185,301.0846,120.8040,239.3282,0,U,54115,999,17939,-.85865E-4,-.21E-6,0
